COSMOS 2251 DEB         
1 35476U 93036ALW 17345.69461667  .00000759  00000-0  22688-3 0  9991
2 35476  73.9854 174.2800 0031148 143.1523 336.8397 14.44343902454962
